RADCAL                  
1 22698U 93041A   09161.73198141  .00000063  00000-0  21629-4 0  3532
2 22698  89.5324  27.5411 0089264 340.1586  19.6160 14.22816283828352
STRV 1A                 
1 23125U 94034B   09160.66581742  .00000526  00000-0  13819-3 0  4508
2 23125   7.2638  89.5742 6839240 285.2602  13.2960  2.85052945139232
STRV 1B                 
1 23126U 94034C   09161.85730781  .00008958  00000-0  84758-3 0  4529
2 23126   7.4274  36.5343 6809862  31.1297 355.6484  2.91954482141461
HELIOS 1A               
1 23605U 95033A   09162.09685950  .00000162  00000-0  39886-4 0  2042
2 23605  98.0835  98.9077 0002896  65.7748 294.3764 14.63869602744288
REX 2                   
1 23814U 96014A   09161.83677972  .00000029  00000-0  79561-5 0  7008
2 23814  90.1602 272.1598 0022045 339.9937  20.0393 14.23866168688642
COSMOS 2346             
1 24953U 97052A   09161.86816400  .00000024  00000-0  81056-5 0  4992
2 24953  82.9193 320.4427 0040085 146.9949 213.3724 13.79433822589756
ARGOS                   
1 25634U 99008A   09161.62117888  .00000023  00000-0  33244-4 0  7391
2 25634  99.0110 198.5751 0009885 329.9275  30.1327 14.18909395533113
HELIOS 1B               
1 25977U 99064A   09162.06747297  .00000401  00000-0  63694-4 0  3416
2 25977  98.3419 162.6063 0001406  19.5932 340.5328 14.77695368511020
MTI                     
1 26102U 00014A   09162.31854100  .00000753  00000-0  47459-4 0  6946
2 26102  97.2182 326.8294 0020894 128.9158 280.9251 15.11754805508516
STRV 1C                 
1 26610U 00072C   09158.16072435 -.00000347  00000-0  00000+0 0  9393
2 26610   6.6906 287.7585 7323242  60.2280 352.5498  2.03456578 63619
OFEQ 5                  
1 27434U 02025A   09162.09368146  .00001160  00000-0  46740-4 0  2833
2 27434 143.4635 250.4551 0027253 334.2889  25.6499 15.05627284392375
HELIOS-2A               
1 28492U 04049A   09162.13041527  .00000073  00000-0  22872-4 0   180
2 28492  98.0870  99.0779 0001831  67.4639 292.6754 14.63864178239252
ESSAIM-1                
1 28494U 04049C   09162.12310634  .00000122  00000-0  28772-4 0   886
2 28494  98.2545 121.0435 0001617 247.0385 113.0654 14.70160140240192
ESSAIM-2                
1 28495U 04049D   09162.19070254  .00000011  00000-0  10369-4 0  1134
2 28495  98.2551 121.2177 0002710 241.7746 118.3200 14.70159207240201
ESSAIM-3                
1 28496U 04049E   09162.12324610 -.00000068  00000-0 -27426-5 0   390
2 28496  98.2679 125.4274 0007663 265.4334  94.6001 14.70159971240376
ESSAIM-4                
1 28497U 04049F   09162.12277368 -.00000033  00000-0  31747-5 0   930
2 28497  98.2673 125.4680 0010860 261.2171  98.7806 14.70160258240376
SAR-LUPE 1              
1 29658U 06060A   09162.14323041  .00000728  00000-0  31190-4 0  7711
2 29658  98.1323 261.2272 0019046 282.1896 195.4388 15.26411038138007
MIDSTAR-1               
1 30773U 07006B   09161.48189231 -.00000304  00000-0  00000+0 0  6439
2 30773  46.0291  33.4329 0009760 152.0419 208.0990 15.23751138125712
CFESAT                  
1 30777U 07006F   09162.19334722  .00000315  00000-0  26175-4 0  5941
2 30777  35.4312 139.5797 0003109 204.9529 155.1037 15.02755599124152
NFIRE                   
1 31140U 07014A   09161.53284000  .00003759  00000-0  51529-4 0  8528
2 31140  48.2327 243.0566 0052672 350.1632   9.8275 15.58543800121199
OFEQ 7                  
1 31601U 07025A   09162.17949649  .00001206  00000-0  32448-4 0  2719
2 31601 141.7504  65.5665 0069670 122.7642 334.3863 15.19592669111512
SAR-LUPE 2              
1 31797U 07030A   09162.13220917  .00000531  00000-0  23721-4 0  1732
2 31797  98.1881 330.8351 0012920 228.6896 220.2225 15.26440079108228
SAR-LUPE 3              
1 32283U 07053A   09162.14958112  .00000607  00000-0  26526-4 0  8023
2 32283  98.1253  32.6458 0010784 349.3456 167.2472 15.26512566 89735
SAR-LUPE 4              
1 32750U 08014A   09162.13074197  .00000840  00000-0  35288-4 0  3446
2 32750  98.1284 262.2907 0023443  91.5538  26.5592 15.26480392 67187
SAR-LUPE 5              
1 33244U 08036A   09162.13632721  .00000715  00000-0  30650-4 0  9919
2 33244  98.1206  31.0783 0022288 135.3111  16.3672 15.26386171 49427
SPIRALE A               
1 33751U 09008C   09160.29041491 -.00000091  00000-0  10000-3 0   831
2 33751   1.7837 254.0751 7137606 267.7471  17.2761  2.25836275  2630
SPIRALE B               
1 33752U 09008D   09160.31040869 -.00000008  00000-0  17223-2 0   687
2 33752   1.7808 254.2712 7135201 267.3648  17.4372  2.25844012  2648
TACSAT 3                
1 35001U 09028A   09161.78633213  .00002210  00000-0  61781-4 0   238
2 35001  40.4563 278.9313 0023369 114.0487 246.2776 15.38815498  3362
